{
  "type": "FeatureCollection",
  "features": [
    {
      "type": "Feature",
      "properties": {
        "norad_id": 66636,
        "name": "STARLINK-35968",
        "group": "last-30-days",
        "lat": 51.94400086668012,
        "lon": -88.68746172580184,
        "alt_km": 380.63918540706163,
        "timestamp": "2025-12-10T11:33:52.173158+00:00",
        "meta_object_name": "STARLINK-35968",
        "meta_object_id": "2025-271V",
        "meta_epoch": "2025-12-10T04:00:01.998720",
        "meta_mean_motion": 15.61168044,
        "meta_eccentricity": 0.0001081,
        "meta_inclination": 53.1596,
        "meta_ra_of_asc_node": 199.5721,
        "meta_arg_of_pericenter": 81.7028,
        "meta_mean_anomaly": 26.5936,
        "meta_ephemeris_type": 0,
        "meta_classification_type": "U",
        "meta_norad_cat_id": 66636,
        "meta_element_set_no": 999,
        "meta_rev_at_epoch": 383,
        "meta_bstar": -0.026505,
        "meta_mean_motion_dot": -0.02003961,
        "meta_mean_motion_ddot": 0,
        "tle_line1": "1 66636U 25271V   25344.16668980 -.02003961  00000+0 -26505-1 0  9997",
        "tle_line2": "2 66636  53.1596 199.5721 0001081  81.7028  26.5936 15.61168044  3839"
      },
      "geometry": {
        "type": "Point",
        "coordinates": [
          -88.68746172580184,
          51.94400086668012
        ]
      }
    },
    {
      "type": "Feature",
      "properties": {
        "norad_id": 66637,
        "name": "STARLINK-35953",
        "group": "last-30-days",
        "lat": 52.34798517258572,
        "lon": -85.62342465222638,
        "alt_km": 380.5924197850609,
        "timestamp": "2025-12-10T11:33:52.173167+00:00",
        "meta_object_name": "STARLINK-35953",
        "meta_object_id": "2025-271W",
        "meta_epoch": "2025-12-10T04:00:01.998720",
        "meta_mean_motion": 15.6117704,
        "meta_eccentricity": 0.0001079,
        "meta_inclination": 53.1598,
        "meta_ra_of_asc_node": 199.5681,
        "meta_arg_of_pericenter": 70.2584,
        "meta_mean_anomaly": 39.9532,
        "meta_ephemeris_type": 0,
        "meta_classification_type": "U",
        "meta_norad_cat_id": 66637,
        "meta_element_set_no": 999,
        "meta_rev_at_epoch": 383,
        "meta_bstar": -0.026684,
        "meta_mean_motion_dot": -0.02016436,
        "meta_mean_motion_ddot": 0,
        "tle_line1": "1 66637U 25271W   25344.16668980 -.02016436  00000+0 -26684-1 0  9997",
        "tle_line2": "2 66637  53.1598 199.5681 0001079  70.2584  39.9532 15.61177040  3830"
      },
      "geometry": {
        "type": "Point",
        "coordinates": [
          -85.62342465222638,
          52.34798517258572
        ]
      }
    },
    {
      "type": "Feature",
      "properties": {
        "norad_id": 66638,
        "name": "STARLINK-35972",
        "group": "last-30-days",
        "lat": 52.66985017031495,
        "lon": -82.52029493548942,
        "alt_km": 380.56041434239796,
        "timestamp": "2025-12-10T11:33:52.173177+00:00",
        "meta_object_name": "STARLINK-35972",
        "meta_object_id": "2025-271X",
        "meta_epoch": "2025-12-10T04:00:01.998720",
        "meta_mean_motion": 15.61165451,
        "meta_eccentricity": 0.0001064,
        "meta_inclination": 53.1598,
        "meta_ra_of_asc_node": 199.5645,
        "meta_arg_of_pericenter": 71.5514,
        "meta_mean_anomaly": 40.5814,
        "meta_ephemeris_type": 0,
        "meta_classification_type": "U",
        "meta_norad_cat_id": 66638,
        "meta_element_set_no": 999,
        "meta_rev_at_epoch": 383,
        "meta_bstar": -0.026473,
        "meta_mean_motion_dot": -0.02001617,
        "meta_mean_motion_ddot": 0,
        "tle_line1": "1 66638U 25271X   25344.16668980 -.02001617  00000+0 -26473-1 0  9999",
        "tle_line2": "2 66638  53.1598 199.5645 0001064  71.5514  40.5814 15.61165451  3836"
      },
      "geometry": {
        "type": "Point",
        "coordinates": [
          -82.52029493548942,
          52.66985017031495
        ]
      }
    },
    {
      "type": "Feature",
      "properties": {
        "norad_id": 66639,
        "name": "STARLINK-35908",
        "group": "last-30-days",
        "lat": 52.90977206303092,
        "lon": -79.37318706653734,
        "alt_km": 380.5195610501005,
        "timestamp": "2025-12-10T11:33:52.173186+00:00",
        "meta_object_name": "STARLINK-35908",
        "meta_object_id": "2025-271Y",
        "meta_epoch": "2025-12-10T04:00:01.998720",
        "meta_mean_motion": 15.61167472,
        "meta_eccentricity": 0.0001085,
        "meta_inclination": 53.1599,
        "meta_ra_of_asc_node": 199.5601,
        "meta_arg_of_pericenter": 70.1987,
        "meta_mean_anomaly": 43.8498,
        "meta_ephemeris_type": 0,
        "meta_classification_type": "U",
        "meta_norad_cat_id": 66639,
        "meta_element_set_no": 999,
        "meta_rev_at_epoch": 383,
        "meta_bstar": -0.026507,
        "meta_mean_motion_dot": -0.02004077,
        "meta_mean_motion_ddot": 0,
        "tle_line1": "1 66639U 25271Y   25344.16668980 -.02004077  00000+0 -26507-1 0  9991",
        "tle_line2": "2 66639  53.1599 199.5601 0001085  70.1987  43.8498 15.61167472  3831"
      },
      "geometry": {
        "type": "Point",
        "coordinates": [
          -79.37318706653734,
          52.90977206303092
        ]
      }
    },
    {
      "type": "Feature",
      "properties": {
        "norad_id": 66640,
        "name": "STARLINK-35921",
        "group": "last-30-days",
        "lat": 53.064787945045104,
        "lon": -76.20177005010186,
        "alt_km": 380.49858352266256,
        "timestamp": "2025-12-10T11:33:52.173196+00:00",
        "meta_object_name": "STARLINK-35921",
        "meta_object_id": "2025-271Z",
        "meta_epoch": "2025-12-10T04:00:01.998720",
        "meta_mean_motion": 15.61167128,
        "meta_eccentricity": 0.000107,
        "meta_inclination": 53.1595,
        "meta_ra_of_asc_node": 199.5565,
        "meta_arg_of_pericenter": 80.6483,
        "meta_mean_anomaly": 35.3167,
        "meta_ephemeris_type": 0,
        "meta_classification_type": "U",
        "meta_norad_cat_id": 66640,
        "meta_element_set_no": 999,
        "meta_rev_at_epoch": 383,
        "meta_bstar": -0.026517,
        "meta_mean_motion_dot": -0.02004665,
        "meta_mean_motion_ddot": 0,
        "tle_line1": "1 66640U 25271Z   25344.16668980 -.02004665  00000+0 -26517-1 0  9997",
        "tle_line2": "2 66640  53.1595 199.5565 0001070  80.6483  35.3167 15.61167128  3836"
      },
      "geometry": {
        "type": "Point",
        "coordinates": [
          -76.20177005010186,
          53.064787945045104
        ]
      }
    },
    {
      "type": "Feature",
      "properties": {
        "norad_id": 66641,
        "name": "STARLINK-35923",
        "group": "last-30-days",
        "lat": 52.83297273484064,
        "lon": -63.457102545199895,
        "alt_km": 380.5102002830181,
        "timestamp": "2025-12-10T11:33:52.173209+00:00",
        "meta_object_name": "STARLINK-35923",
        "meta_object_id": "2025-271AA",
        "meta_epoch": "2025-12-10T04:00:01.998720",
        "meta_mean_motion": 15.61169319,
        "meta_eccentricity": 0.0001123,
        "meta_inclination": 53.1596,
        "meta_ra_of_asc_node": 199.5396,
        "meta_arg_of_pericenter": 78.9259,
        "meta_mean_anomaly": 44.7058,
        "meta_ephemeris_type": 0,
        "meta_classification_type": "U",
        "meta_norad_cat_id": 66641,
        "meta_element_set_no": 999,
        "meta_rev_at_epoch": 383,
        "meta_bstar": -0.026556,
        "meta_mean_motion_dot": -0.02007475,
        "meta_mean_motion_ddot": 0,
        "tle_line1": "1 66641U 25271AA  25344.16668980 -.02007475  00000+0 -26556-1 0  9993",
        "tle_line2": "2 66641  53.1596 199.5396 0001123  78.9259  44.7058 15.61169319  3837"
      },
      "geometry": {
        "type": "Point",
        "coordinates": [
          -63.457102545199895,
          52.83297273484064
        ]
      }
    },
    {
      "type": "Feature",
      "properties": {
        "norad_id": 66642,
        "name": "STARLINK-35926",
        "group": "last-30-days",
        "lat": 53.01874371190791,
        "lon": -66.62089672687597,
        "alt_km": 380.550141371652,
        "timestamp": "2025-12-10T11:33:52.173220+00:00",
        "meta_object_name": "STARLINK-35926",
        "meta_object_id": "2025-271AB",
        "meta_epoch": "2025-12-10T04:00:01.998720",
        "meta_mean_motion": 15.6116684,
        "meta_eccentricity": 0.0001056,
        "meta_inclination": 53.1595,
        "meta_ra_of_asc_node": 199.5443,
        "meta_arg_of_pericenter": 69.6328,
        "meta_mean_anomaly": 52.0831,
        "meta_ephemeris_type": 0,
        "meta_classification_type": "U",
        "meta_norad_cat_id": 66642,
        "meta_element_set_no": 999,
        "meta_rev_at_epoch": 359,
        "meta_bstar": -0.0265,
        "meta_mean_motion_dot": -0.02003534,
        "meta_mean_motion_ddot": 0,
        "tle_line1": "1 66642U 25271AB  25344.16668980 -.02003534  00000+0 -26500-1 0  9995",
        "tle_line2": "2 66642  53.1595 199.5443 0001056  69.6328  52.0831 15.61166840  3599"
      },
      "geometry": {
        "type": "Point",
        "coordinates": [
          -66.62089672687597,
          53.01874371190791
        ]
      }
    }
  ]
}